PERSEUS-M1              
1 40039U 14033AF  26133.37918625  .00001314  00000+0  12397-3 0  9996
2 40039  97.9628  76.9475 0012845  57.4952 302.7508 14.95509627645434
POLYITAN-1              
1 40042U 14033AJ  26133.51389578  .00010871  00000+0  35416-3 0  9990
2 40042  98.0972 156.5277 0005387 263.8246  96.2380 15.32029061648289
TIGRISAT                
1 40043U 14033AK  26133.41623080  .00001379  00000+0  16459-3 0  9998
2 40043  97.7790 284.2372 0049316 187.0983 172.9540 14.85008518640467
AEROCUBE 6A             
1 40045U 14033AM  26133.42029334  .00004377  00000+0  37233-3 0  9997
2 40045  97.7215 300.7558 0040272 130.3605 230.1145 14.97711925641415
AEROCUBE 6B             
1 40046U 14033AN  26133.45610734  .00003850  00000+0  31692-3 0  9999
2 40046  97.7169 300.5116 0037989 123.7099 236.7754 14.99132953641559
CANX-4                  
1 40055U 14034C   26133.15986139  .00000543  00000+0  77075-4 0  9994
2 40055  98.3170   7.1807 0013890 120.6264 239.6319 14.81197448639344
CANX-5                  
1 40056U 14034D   26133.22625172  .00000543  00000+0  77001-4 0  9999
2 40056  98.3171   7.2908 0013907 120.6263 239.6321 14.81214543630167
UKUBE-1                 
1 40074U 14037F   26133.78385179  .00004748  00000+0  27350-3 0  9995
2 40074  98.4243 133.4590 0000403  69.6193 290.5078 15.12981553643355
BRITE-PL2 (HEWELIUSZ)   
1 40119U 14049B   26133.75883867  .00000742  00000+0  74275-4 0  9991
2 40119  97.9059 245.5044 0013177 219.5014 140.5247 14.94458910636307
AEROCUBE 5C             
1 40965U 15058B   26133.03268701  .00002014  00000+0  18717-3 0  9998
2 40965  64.7690  11.9373 0129795  77.0915 284.4657 14.91248892360412
AEROCUBE 7              
1 40966U 15058C   26133.86419200  .00003024  00000+0  25044-3 0  9995
2 40966  64.7635 352.3014 0119619  75.4661 285.9686 14.95451007360821
FOX-1A (AO-85)          
1 40967U 15058D   26133.13585852  .00002000  00000+0  18869-3 0  9993
2 40967  64.7769  27.8942 0128985  70.3373 291.1605 14.90756995108340
SINOD-D 1               
1 40968U 15058E   26133.64563793  .00002950  00000+0  24469-3 0  9997
2 40968  64.7765   7.0603 0117500  66.9245 294.4206 14.95627628111499
SNAP-3 ALICE            
1 40970U 15058G   26133.53837601  .00056333  00000+0  86051-3 0  9999
2 40970  64.7533 223.0163 0032858  30.3097 329.9937 15.53456347111496
LMRST-SAT               
1 40971U 15058H   26133.14941863  .00001964  00000+0  18660-3 0  9994
2 40971  64.7775  24.1244 0130776  72.3606 289.1737 14.90382370108333
SNAP-3 EDDIE            
1 40972U 15058J   26133.49047398  .00052751  00000+0  77294-3 0  9991
2 40972  64.7453 214.1540 0033326  34.0925 326.2349 15.54595144113625
PROPCUBE 3              
1 40973U 15058K   26133.06974406  .00002573  00000+0  22188-3 0  9993
2 40973  64.7701   2.2358 0122935  73.9002 287.5606 14.94012121109552
BISONSAT                
1 40974U 15058L   26133.79202600  .00007824  00000+0  39045-3 0  9998
2 40974  64.7593 284.7776 0078714  62.0772 298.8293 15.15476100110409
SNAP-3 JIMI             
1 40975U 15058M   26132.96993897  .00004121  00000+0  29163-3 0  9999
2 40975  64.7659 331.1663 0104934  69.9706 291.2672 15.01929999108939
PROPCUBE 1 (FLORA)      
1 40976U 15058N   26133.13928822  .00001810  00000+0  17989-3 0  9991
2 40976  64.7760  43.8406 0129583  74.6421 286.8966 14.89015947111045
SINOD-D 3               
1 40977U 15058P   26133.69792236  .00002753  00000+0  24069-3 0  9995
2 40977  64.7741  23.4958 0118086  71.9182 289.4753 14.93743310109600
HORYU-4                 
1 41340U 16012D   26133.68948448  .00132750  00000+0  72995-3 0  9990
2 41340  30.9895 328.5166 0005336  30.7718 329.3251 15.78201025565330
RAVAN                   
1 41849U 16067B   26133.24814590  .00026611  00000+0  45194-3 0  9995
2 41849  97.9946  18.8757 0007278 119.3669 240.8309 15.51427623522277
CELTEE 1                
1 41850U 16067C   26133.89790817  .00003695  00000+0  17859-3 0  9997
2 41850  98.0722 358.1286 0001741  58.9739 301.1664 15.19330583520674
OPTICUBE 04             
1 41851U 16067D   26133.54469230  .00001338  00000+0  87756-4 0  9998
2 41851  98.0736 344.0184 0014478 231.8103 128.1821 15.09506837519945
AEROCUBE 8D             
1 41852U 16067E   26133.35973051  .00004410  00000+0  18605-3 0  9999
2 41852  98.0733   0.8881 0001971 244.2585 115.8447 15.23894158520761
AEROCUBE 8C             
1 41853U 16067F   26133.58722044  .00004758  00000+0  19897-3 0  9998
2 41853  98.0604 358.4058 0005580 164.8365 195.3038 15.24134619520792
CORVUS BC2              
1 42846U 17042X   26133.44912536  .00002138  00000+0  15033-3 0  9995
2 42846  97.4037 296.1630 0011954 225.6055 134.4195 15.06068489481836
CORVUS BC1              
1 42847U 17042Y   26133.44768132  .00002084  00000+0  14594-3 0  9998
2 42847  97.4069 296.9530 0011348 199.4565 160.6231 15.06240207481865
MAKERSAT 0              
1 43016U 17073D   26133.61340448  .00017217  00000+0  48175-3 0  9992
2 43016  97.4683  15.8945 0111576  36.9242 323.9613 15.30593809461171
